NORAD_CAT_ID,OBJECT_NAME,OBJECT_TYPE,EPOCH,MEAN_MOTION,ECCENTRICITY,INCLINATION,RA_OF_ASC_NODE,ARG_OF_PERICENTER,MEAN_ANOMALY,BSTAR,MEAN_MOTION_DOT,MEAN_MOTION_DDOT,TLE_LINE0,TLE_LINE1,TLE_LINE2,SEMIMAJOR_AXIS,PERIOD,APOGEE,PERIGEE,DECAYED
53718.0,STARLINK-4695,PAYLOAD,2023-10-11 08:16:16,15.07197753,0.0001441,53.2161,245.9785,87.5738,272.5418,-1.353e-05,-4.89e-06,0.0,0 STARLINK-4695,1 53718U 22107U   23284.34463681 -.00000489  00000-0 -13530-4 0  9999,2 53718  53.2161 245.9785 0001441  87.5738 272.5418 15.07197753 61058,6922.905,95.542,545.767,543.772,0.0
53718.0,STARLINK-4695,PAYLOAD,2023-10-12 04:57:38,15.07221721,0.0001361,53.2152,242.119,98.7244,261.3901,0.00095916,0.00014353,0.0,0 STARLINK-4695,1 53718U 22107U   23285.20669173  .00014353  00000-0  95916-3 0  9999,2 53718  53.2152 242.1190 0001361  98.7244 261.3901 15.07221721 61184,6922.831,95.54,545.638,543.754,0.0
53718.0,STARLINK-4695,PAYLOAD,2023-10-12 06:33:07,15.0722637,0.0001331,53.2148,241.8216,96.8856,263.2287,0.0012634,0.00019011,0.0,0 STARLINK-4695,1 53718U 22107U   23285.27300321  .00019011  00000-0  12634-2 0  9994,2 53718  53.2148 241.8216 0001331  96.8856 263.2287 15.07226370 61643,6922.817,95.54,545.603,543.761,0.0
53718.0,STARLINK-4695,PAYLOAD,2023-10-12 14:30:34,15.07215289,0.0001578,53.2162,240.3359,91.8168,268.3004,0.00079901,0.00011903,0.0,0 STARLINK-4695,1 53718U 22107U   23285.60456601  .00011903  00000-0  79901-3 0  9997,2 53718  53.2162 240.3359 0001578  91.8168 268.3004 15.07215289 61241,6922.851,95.54,545.808,543.624,0.0
53718.0,STARLINK-4695,PAYLOAD,2023-10-13 06:25:27,15.07222251,0.0001572,53.2161,237.3666,97.8592,262.2578,0.00092321,0.00013804,0.0,0 STARLINK-4695,1 53718U 22107U   23286.26768293  .00013804  00000-0  92321-3 0  9996,2 53718  53.2161 237.3666 0001572  97.8592 262.2578 15.07222251 61345,6922.83,95.54,545.783,543.606,0.0
53718.0,STARLINK-4695,PAYLOAD,2023-10-13 14:22:54,15.07216351,0.0002108,53.2161,235.8822,96.5582,263.5649,0.00084163,0.00012555,0.0,0 STARLINK-4695,1 53718U 22107U   23286.59924455  .00012555  00000-0  84163-3 0  9993,2 53718  53.2161 235.8822 0002108  96.5582 263.5649 15.07216351 61845,6922.848,95.54,546.172,543.253,0.0
53718.0,STARLINK-4695,PAYLOAD,2023-10-14 03:06:48,15.07237053,0.0001492,53.2158,233.5082,102.2224,257.8934,0.001804,0.00027307,0.0,0 STARLINK-4695,1 53718U 22107U   23287.12973202  .00027307  00000-0  18040-2 0  9998,2 53718  53.2158 233.5082 0001492 102.2224 257.8934 15.07237053 61471,6922.784,95.539,545.682,543.616,0.0
53718.0,STARLINK-4695,PAYLOAD,2023-10-14 20:37:12,15.07208831,0.0001694,53.2168,230.2394,100.9345,259.1837,0.0013498,0.00020325,0.0,0 STARLINK-4695,1 53718U 22107U   23287.85917010  .00020325  00000-0  13498-2 0  9998,2 53718  53.2168 230.2394 0001694 100.9345 259.1837 15.07208831 61586,6922.871,95.541,545.908,543.563,0.0
53718.0,STARLINK-4695,PAYLOAD,2023-10-15 02:59:10,15.07189349,0.0001293,53.2171,229.0525,75.1338,284.9796,0.0016305,0.00024612,0.0,0 STARLINK-4695,1 53718U 22107U   23288.12442197  .00024612  00000-0  16305-2 0  9991,2 53718  53.2171 229.0525 0001293  75.1338 284.9796 15.07189349 61629,6922.93,95.542,545.691,543.9,0.0
53718.0,STARLINK-4695,PAYLOAD,2023-10-15 06:10:08,15.07190765,0.0001388,53.2175,228.4593,67.5398,292.5741,0.0011336,0.00017007,0.0,0 STARLINK-4695,1 53718U 22107U   23288.25704803  .00017007  00000-0  11336-2 0  9999,2 53718  53.2175 228.4593 0001388  67.5398 292.5741 15.07190765 62098,6922.926,95.542,545.752,543.83,0.0
53718.0,STARLINK-4695,PAYLOAD,2023-10-16 12:24:26,15.07222189,0.0001321,53.2176,222.8183,86.4216,273.6926,0.00062453,9.24e-05,0.0,0 STARLINK-4695,1 53718U 22107U   23289.51696795  .00009240  00000-0  62453-3 0  9996,2 53718  53.2176 222.8183 0001321  86.4216 273.6926 15.07222189 61830,6922.83,95.54,545.609,543.78,0.0
53718.0,STARLINK-4695,PAYLOAD,2023-10-16 20:21:52,15.0720501,0.0001276,53.2164,221.333,75.9484,284.1649,-6.6261e-05,-1.292e-05,0.0,0 STARLINK-4695,1 53718U 22107U   23289.84852986 -.00001292  00000-0 -66261-4 0  9991,2 53718  53.2164 221.3330 0001276  75.9484 284.1649 15.07205010 62333,6922.882,95.541,545.631,543.864,0.0
53718.0,STARLINK-4695,PAYLOAD,2023-10-17 12:16:46,15.07217112,0.0001285,53.2161,218.3638,78.7078,281.4057,0.0010672,0.00016004,0.0,0 STARLINK-4695,1 53718U 22107U   23290.51164909  .00016004  00000-0  10672-2 0  9996,2 53718  53.2161 218.3638 0001285  78.7078 281.4057 15.07217112 62437,6922.845,95.54,545.6,543.821,0.0
53718.0,STARLINK-4695,PAYLOAD,2023-10-18 02:36:10,15.07213632,0.0001608,53.2166,215.6939,86.4377,273.6798,0.00060562,8.949e-05,0.0,0 STARLINK-4695,1 53718U 22107U   23291.10845748  .00008949  00000-0  60562-3 0  9992,2 53718  53.2166 215.6939 0001608  86.4377 273.6798 15.07213632 62521,6922.856,95.541,545.834,543.608,0.0
53718.0,STARLINK-4695,PAYLOAD,2023-10-18 12:09:06,15.07213854,0.0001827,53.2154,213.9095,81.4642,278.6557,0.00041595,6.055e-05,0.0,0 STARLINK-4695,1 53718U 22107U   23291.50632858  .00006055  00000-0  41595-3 0  9993,2 53718  53.2154 213.9095 0001827  81.4642 278.6557 15.07213854 62136,6922.855,95.541,545.985,543.456,0.0
53718.0,STARLINK-4695,PAYLOAD,2023-10-19 04:03:59,15.07223926,0.0001564,53.2166,210.9415,84.0937,276.0232,0.00048312,7.082e-05,0.0,0 STARLINK-4695,1 53718U 22107U   23292.16944205  .00007082  00000-0  48312-3 0  9993,2 53718  53.2166 210.9415 0001564  84.0937 276.0232 15.07223926 62689,6922.824,95.54,545.772,543.607,0.0
53718.0,STARLINK-4695,PAYLOAD,2023-10-20 03:56:19,15.0723082,0.0001378,53.2165,206.4874,94.3853,265.7296,0.000476,6.975e-05,0.0,0 STARLINK-4695,1 53718U 22107U   23293.16411326  .00006975  00000-0  47600-3 0  9996,2 53718  53.2165 206.4874 0001378  94.3853 265.7296 15.07230820 62384,6922.803,95.539,545.622,543.714,0.0
53718.0,STARLINK-4695,PAYLOAD,2023-10-20 18:15:45,15.07197734,0.0001625,53.2179,203.8152,82.9659,277.1517,-3.802e-05,-8.62e-06,0.0,0 STARLINK-4695,1 53718U 22107U   23293.76094178 -.00000862  00000-0 -38020-4 0  9992,2 53718  53.2179 203.8152 0001625  82.9659 277.1517 15.07197734 62470,6922.905,95.542,545.895,543.645,0.0
53718.0,STARLINK-4695,PAYLOAD,2023-10-20 21:26:43,15.07195474,0.0001432,53.2178,203.2221,84.662,275.4535,-9.9259e-05,-1.794e-05,0.0,0 STARLINK-4695,1 53718U 22107U   23293.89356077 -.00001794  00000-0 -99259-4 0  9991,2 53718  53.2178 203.2221 0001432  84.6620 275.4535 15.07195474 62945,6922.912,95.542,545.768,543.785,0.0
53718.0,STARLINK-4695,PAYLOAD,2023-10-21 00:37:42,15.07197835,0.0001471,53.2167,202.6267,91.3225,268.7935,-0.00012876,-2.242e-05,0.0,0 STARLINK-4695,1 53718U 22107U   23294.02618197 -.00002242  00000-0 -12876-3 0  9999,2 53718  53.2167 202.6267 0001471  91.3225 268.7935 15.07197835 62510,6922.904,95.542,545.788,543.751,0.0
53718.0,STARLINK-4695,PAYLOAD,2023-10-21 03:48:40,15.0719995,0.0001449,53.2166,202.0317,83.4396,276.676,-1.6408e-05,-5.33e-06,0.0,0 STARLINK-4695,1 53718U 22107U   23294.15880660 -.00000533  00000-0 -16408-4 0  9996,2 53718  53.2166 202.0317 0001449  83.4396 276.6760 15.07199950 62980,6922.898,95.541,545.766,543.76,0.0
53718.0,STARLINK-4695,PAYLOAD,2023-10-21 18:08:04,15.07213072,0.0001298,53.2165,199.3637,72.2736,287.8397,0.00031356,4.494e-05,0.0,0 STARLINK-4695,1 53718U 22107U   23294.75560786  .00004494  00000-0  31356-3 0  9992,2 53718  53.2165 199.3637 0001298  72.2736 287.8397 15.07213072 62621,6922.858,95.541,545.621,543.824,0.0
53718.0,STARLINK-4695,PAYLOAD,2023-10-21 22:54:32,15.07226088,0.000154,53.2165,198.4751,71.0788,289.037,0.0005846,8.631e-05,0.0,0 STARLINK-4695,1 53718U 22107U   23294.95454132  .00008631  00000-0  58460-3 0  9993,2 53718  53.2165 198.4751 0001540  71.0788 289.0370 15.07226088 63102,6922.818,95.54,545.749,543.617,0.0
53718.0,STARLINK-4695,PAYLOAD,2023-10-22 03:40:59,15.0724732,0.000144,53.2166,197.5789,80.6507,279.4647,0.001299,0.00019567,0.0,0 STARLINK-4695,1 53718U 22107U   23295.15347166  .00019567  00000-0  12990-2 0  9991,2 53718  53.2166 197.5789 0001440  80.6507 279.4647 15.07247320 62682,6922.753,95.538,545.615,543.621,0.0
53718.0,STARLINK-4695,PAYLOAD,2023-10-22 22:46:53,15.07190581,0.0001411,53.2162,194.0167,109.2353,250.8791,0.0012658,0.00019029,0.0,0 STARLINK-4695,1 53718U 22107U   23295.94922923  .00019029  00000-0  12658-2 0  9992,2 53718  53.2162 194.0167 0001411 109.2353 250.8791 15.07190581 63258,6922.927,95.542,545.768,543.815,0.0
53718.0,STARLINK-4695,PAYLOAD,2023-10-23 00:22:22,15.0718929,0.0001415,53.2163,193.7195,105.6399,254.4748,0.0013516,0.00020341,0.0,0 STARLINK-4695,1 53718U 22107U   23296.01554256  .00020341  00000-0  13516-2 0  9994,2 53718  53.2163 193.7195 0001415 105.6399 254.4748 15.07189290 62818,6922.931,95.542,545.775,543.816,0.0
53718.0,STARLINK-4695,PAYLOAD,2023-10-23 09:55:19,15.07197096,0.0001336,53.2163,191.9378,103.0215,257.0926,0.0011617,0.0001744,0.0,0 STARLINK-4695,1 53718U 22107U   23296.41341791  .00017440  00000-0  11617-2 0  9992,2 53718  53.2163 191.9378 0001336 103.0215 257.0926 15.07197096 62878,6922.907,95.542,545.697,543.847,0.0
53718.0,STARLINK-4695,PAYLOAD,2023-10-23 22:39:14,15.07211852,0.0001365,53.2161,189.5622,104.215,255.8993,0.0010191,0.00015266,0.0,0 STARLINK-4695,1 53718U 22107U   23296.94391309  .00015266  00000-0  10191-2 0  9990,2 53718  53.2161 189.5622 0001365 104.2150 255.8993 15.07211852 63401,6922.861,95.541,545.671,543.781,0.0
53718.0,STARLINK-4695,PAYLOAD,2023-10-24 09:47:39,15.07213839,0.0001288,53.2161,187.4835,101.1464,258.9672,0.00055023,8.104e-05,0.0,0 STARLINK-4695,1 53718U 22107U   23297.40809439  .00008104  00000-0  55023-3 0  9997,2 53718  53.2161 187.4835 0001288 101.1464 258.9672 15.07213839 63025,6922.855,95.541,545.612,543.829,0.0
53718.0,STARLINK-4695,PAYLOAD,2023-10-25 22:23:54,15.07214277,0.0001506,53.2156,180.656,99.1139,261.0023,0.00027762,3.946e-05,0.0,0 STARLINK-4695,1 53718U 22107U   23298.93326653  .00003946  00000-0  27762-3 0  9996,2 53718  53.2156 180.6560 0001506  99.1139 261.0023 15.07214277 63254,6922.854,95.54,545.762,543.676,0.0
